PANDORA
1 67395U 80229J   26118.86792824  .00000000  00000-0  37770-3 0    05
2 67395  97.8040 118.2931 0003646 298.0177 356.8464 14.87955407    04
